STARLINK-37478          
1 69260U 26117Y   26162.58335648 -.01923591  00000+0 -91270-2 0  9991
2 69260  53.1557 270.9958 0001024  58.7789  80.2640 15.85129656  3272
STARLINK-37506          
1 69261U 26117Z   26162.58335648 -.01980666  00000+0 -96932-2 0  9998
2 69261  53.1556 270.9853 0001218  58.2785  85.6206 15.84583519  3270
STARLINK-37503          
1 69262U 26117AA  26162.58335648 -.01944184  00000+0 -95785-2 0  9999
2 69262  53.1560 270.9809 0001130  57.7371  88.1119 15.84387672  3278
STARLINK-37502          
1 69263U 26117AB  26162.58335648 -.01875460  00000+0 -91857-2 0  9996
2 69263  53.1559 270.9756 0001226  54.7616  93.3250 15.84397601  3270
STARLINK-37486          
1 69264U 26117AC  26162.58335648 -.00520597  00000+0 -23954-2 0  9997
2 69264  53.1553 270.9678 0001047  53.8247  98.1830 15.84153018  3278
STARLINK-37435          
1 69265U 26117AD  26162.58335648 -.01676739  00000+0 -88405-2 0  9991
2 69265  53.1566 270.9702 0001388  56.6540  93.6385 15.83021877  3277
STARLINK-37464          
1 69266U 26117AE  26162.58335648  .00087322  00000+0  42010-3 0  9996
2 69266  53.1567 270.9593 0001365  55.4878  99.8456 15.81947668  3273
KUIPER-00282            
1 69267U 26118A   26162.49138169  .00031049  00000+0  91504-3 0  9994
2 69267  51.8593  81.0011 0011789 159.8325 200.3128 15.34694498  3106
KUIPER-00383            
1 69268U 26118B   26162.48834872 -.00026881  00000+0 -77662-3 0  9997
2 69268  51.8597  80.9812 0010667 161.8105 198.3264 15.34725952  3108
KUIPER-00527            
1 69269U 26118C   26162.48510590 -.00184993  00000+0 -54528-2 0  9990
2 69269  51.8615  80.9621 0010264 153.1194 207.0325 15.35131806  3109
KUIPER-00562            
1 69270U 26118D   26162.59518952  .00015609  00000+0  41343-3 0  9991
2 69270  51.8716  80.1991 0001892 104.7714 255.3483 15.38529230  3120
KUIPER-00570            
1 69271U 26118E   26162.48757103  .00027173  00000+0  78541-3 0  9992
2 69271  51.8580  80.9758 0011588 164.4793 195.6550 15.35379000  3106
KUIPER-00572            
1 69272U 26118F   26162.60859066  .00012061  00000+0  33942-3 0  9994
2 69272  51.8670  80.2936 0007354 150.1216 210.0192 15.36868211  3120
KUIPER-00581            
1 69273U 26118G   26162.48112712  .00023334  00000+0  65182-3 0  9997
2 69273  51.8653  80.9399 0008869 155.8560 204.2844 15.36562533  3192
KUIPER-00584            
1 69274U 26118H   26162.48949636  .00009429  00000+0  28227-3 0  9999
2 69274  51.8608  80.9901 0011433 168.0627 192.0632 15.35174334  3100
KUIPER-00587            
1 69275U 26118J   26162.48062591  .00017077  00000+0  48073-3 0  9995
2 69275  51.8628  80.9338 0008343 156.4185 203.7185 15.36539645  3107
KUIPER-00590            
1 69276U 26118K   26162.60134213  .00012521  00000+0  34218-3 0  9996
2 69276  51.8681  80.2471 0004397 138.3445 221.7877 15.37757334  3129
KUIPER-00592            
1 69277U 26118L   26162.59959107  .00015118  00000+0  40772-3 0  9999
2 69277  51.8702  80.2339 0003742 118.0612 242.0754 15.37995818  3122
KUIPER-00593            
1 69278U 26118M   26162.60002598  .00023524  00000+0  62994-3 0  9995
2 69278  51.8710  80.2351 0004074 134.4917 225.6403 15.37896791  3189
KUIPER-00594            
1 69279U 26118N   26162.59414017  .00021792  00000+0  57309-3 0  9996
2 69279  51.8712  80.1958 0001172  74.9976 285.1141 15.38508202  3125
KUIPER-00595            
1 69280U 26118P   26162.59595646  .00020962  00000+0  55367-3 0  9996
2 69280  51.8708  80.2095 0001920 120.4997 239.6180 15.38397991  3157
KUIPER-00596            
1 69281U 26118Q   26162.48811932 -.00008679  00000+0 -23684-3 0  9994
2 69281  51.8557  80.9771 0011752 162.3132 197.8266 15.35437753  3101
KUIPER-00597            
1 69282U 26118R   26162.60698850  .00013188  00000+0  36914-3 0  9990
2 69282  51.8645  80.2837 0007204 148.7253 211.4163 15.36947575  3125
KUIPER-00599            
1 69283U 26118S   26162.60538171  .00021645  00000+0  59268-3 0  9994
2 69283  51.8689  80.2726 0006374 144.0206 216.1211 15.37248837  3127
KUIPER-00600            
1 69284U 26118T   26162.61013818  .00021873  00000+0  61115-3 0  9999
2 69284  51.8640  80.3029 0009038 153.3592 206.7860 15.36594169  3129
KUIPER-00601            
1 69285U 26118U   26162.60290851  .00021497  00000+0  58264-3 0  9996
2 69285  51.8700  80.2556 0004901 136.9834 223.1536 15.37576861  3124
KUIPER-00602            
1 69286U 26118V   26162.59893002  .00014720  00000+0  39691-3 0  9996
2 69286  51.8696  80.2306 0003164 127.0414 233.0863 15.38026303  3122
KUIPER-00603            
1 69287U 26118W   26162.60389734  .00013891  00000+0  38244-3 0  9992
2 69287  51.8667  80.2638 0005684 139.6140 220.5270 15.37421765  3126
KUIPER-00605            
1 69288U 26118X   26162.60779689  .00021568  00000+0  59569-3 0  9998
2 69288  51.8658  80.2888 0007822 145.0383 215.1118 15.36973661  3127
KUIPER-00606            
1 69289U 26118Y   26162.60193264  .00018574  00000+0  50346-3 0  9995
2 69289  51.8692  80.2500 0004731 133.3696 226.7686 15.37674815  3128
