OBJECT_NAME,OBJECT_ID,EPOCH,MEAN_MOTION,ECCENTRICITY,INCLINATION,RA_OF_ASC_NODE,ARG_OF_PERICENTER,MEAN_ANOMALY,EPHEMERIS_TYPE,CLASSIFICATION_TYPE,NORAD_CAT_ID,ELEMENT_SET_NO,REV_AT_EPOCH,BSTAR,MEAN_MOTION_DOT,MEAN_MOTION_DDOT
STARLINK-37478,2026-117Y,2026-06-11T14:00:01.999872,15.85129656,.00010249,53.1557,270.9958,58.7789,80.2640,0,U,69260,999,327,-.91269746E-2,-.1923591E-1,0
STARLINK-37506,2026-117Z,2026-06-11T14:00:01.999872,15.84583519,.00012188,53.1556,270.9853,58.2785,85.6206,0,U,69261,999,327,-.9693206E-2,-.1980666E-1,0
STARLINK-37503,2026-117AA,2026-06-11T14:00:01.999872,15.84387672,.00011302,53.1560,270.9809,57.7371,88.1119,0,U,69262,999,327,-.95784979E-2,-.1944184E-1,0
STARLINK-37502,2026-117AB,2026-06-11T14:00:01.999872,15.84397601,.00012268,53.1559,270.9756,54.7616,93.3250,0,U,69263,999,327,-.91857383E-2,-.187546E-1,0
STARLINK-37486,2026-117AC,2026-06-11T14:00:01.999872,15.84153018,.00010477,53.1553,270.9678,53.8247,98.1830,0,U,69264,999,327,-.23954198E-2,-.520597E-2,0
STARLINK-37435,2026-117AD,2026-06-11T14:00:01.999872,15.83021877,.00013886,53.1566,270.9702,56.6540,93.6385,0,U,69265,999,327,-.88405023E-2,-.1676739E-1,0
STARLINK-37464,2026-117AE,2026-06-11T14:00:01.999872,15.81947668,.00013658,53.1567,270.9593,55.4878,99.8456,0,U,69266,999,327,.42010109E-3,.87322E-3,0
KUIPER-00282,2026-118A,2026-06-11T11:47:35.378016,15.34694498,.00117897,51.8593,81.0011,159.8325,200.3128,0,U,69267,999,310,.91504426E-3,.31049E-3,0
KUIPER-00383,2026-118B,2026-06-11T11:43:13.329408,15.34725952,.00106678,51.8597,80.9812,161.8105,198.3264,0,U,69268,999,310,-.7766171E-3,-.26881E-3,0
KUIPER-00527,2026-118C,2026-06-11T11:38:33.149760,15.35131806,.00102641,51.8615,80.9621,153.1194,207.0325,0,U,69269,999,310,-.54527553E-2,-.184993E-2,0
KUIPER-00562,2026-118D,2026-06-11T14:17:04.374528,15.38529230,.00018924,51.8716,80.1991,104.7714,255.3483,0,U,69270,999,312,.41343351E-3,.15609E-3,0
KUIPER-00570,2026-118E,2026-06-11T11:42:06.136992,15.35379000,.00115884,51.8580,80.9758,164.4793,195.6550,0,U,69271,999,310,.78541148E-3,.27173E-3,0
KUIPER-00572,2026-118F,2026-06-11T14:36:22.233024,15.36868211,.00073548,51.8670,80.2936,150.1216,210.0192,0,U,69272,999,312,.33941551E-3,.12061E-3,0
KUIPER-00581,2026-118G,2026-06-11T11:32:49.383168,15.36562533,.00088696,51.8653,80.9399,155.8560,204.2844,0,U,69273,999,319,.65181634E-3,.23334E-3,0
KUIPER-00584,2026-118H,2026-06-11T11:44:52.485504,15.35174334,.00114337,51.8608,80.9901,168.0627,192.0632,0,U,69274,999,310,.28227488E-3,.9429E-4,0
KUIPER-00587,2026-118J,2026-06-11T11:32:06.078624,15.36539645,.00083435,51.8628,80.9338,156.4185,203.7185,0,U,69275,999,310,.48073397E-3,.17077E-3,0
KUIPER-00590,2026-118K,2026-06-11T14:25:55.960032,15.37757334,.0004397,51.8681,80.2471,138.3445,221.7877,0,U,69276,999,312,.34218128E-3,.12521E-3,0
KUIPER-00592,2026-118L,2026-06-11T14:23:24.668448,15.37995818,.00037425,51.8702,80.2339,118.0612,242.0754,0,U,69277,999,312,.40771901E-3,.15118E-3,0
KUIPER-00593,2026-118M,2026-06-11T14:24:02.244672,15.37896791,.0004074,51.8710,80.2351,134.4917,225.6403,0,U,69278,999,318,.62993935E-3,.23524E-3,0
KUIPER-00594,2026-118N,2026-06-11T14:15:33.710688,15.38508202,.00011723,51.8712,80.1958,74.9976,285.1141,0,U,69279,999,312,.57308874E-3,.21792E-3,0
KUIPER-00595,2026-118P,2026-06-11T14:18:10.638144,15.38397991,.000192,51.8708,80.2095,120.4997,239.6180,0,U,69280,999,315,.55366833E-3,.20962E-3,0
KUIPER-00596,2026-118Q,2026-06-11T11:42:53.509248,15.35437753,.00117521,51.8557,80.9771,162.3132,197.8266,0,U,69281,999,310,-.23683928E-3,-.8679E-4,0
KUIPER-00597,2026-118R,2026-06-11T14:34:03.806400,15.36947575,.00072048,51.8645,80.2837,148.7253,211.4163,0,U,69282,999,312,.36914415E-3,.13188E-3,0
KUIPER-00599,2026-118S,2026-06-11T14:31:44.979744,15.37248837,.00063741,51.8689,80.2726,144.0206,216.1211,0,U,69283,999,312,.59268082E-3,.21645E-3,0
KUIPER-00600,2026-118T,2026-06-11T14:38:35.938752,15.36594169,.00090381,51.8640,80.3029,153.3592,206.7860,0,U,69284,999,312,.61115382E-3,.21873E-3,0
KUIPER-00601,2026-118U,2026-06-11T14:28:11.295264,15.37576861,.0004901,51.8700,80.2556,136.9834,223.1536,0,U,69285,999,312,.58263502E-3,.21497E-3,0
KUIPER-00602,2026-118V,2026-06-11T14:22:27.553728,15.38026303,.00031642,51.8696,80.2306,127.0414,233.0863,0,U,69286,999,312,.39691297E-3,.1472E-3,0
KUIPER-00603,2026-118W,2026-06-11T14:29:36.730176,15.37421765,.00056843,51.8667,80.2638,139.6140,220.5270,0,U,69287,999,312,.38244286E-3,.13891E-3,0
KUIPER-00605,2026-118X,2026-06-11T14:35:13.651296,15.36973661,.00078226,51.8658,80.2888,145.0383,215.1118,0,U,69288,999,312,.59569058E-3,.21568E-3,0
KUIPER-00606,2026-118Y,2026-06-11T14:26:46.980096,15.37674815,.00047319,51.8692,80.2500,133.3696,226.7686,0,U,69289,999,312,.5034623E-3,.18574E-3,0
